{"type": "FeatureCollection", "features": [ {"type": "Feature", "properties": {"norad_id": 31658, "name": "FENGYUN 1C DEB", "group": "fengyun-1c-debris", "lat": 68.69632141621987, "lon": 48.69583682157307, "alt_km": 1047.2198663536064, "timestamp": "2025-12-25T09:48:52.573532+00:00", "meta": {"OBJECT_NAME": "FENGYUN 1C DEB", "OBJECT_ID": "1999-025CBQ", "EPOCH": "2025-12-22T19:28:59.685024", "MEAN_MOTION": 13.98886705, "ECCENTRICITY": 0.02151336, "INCLINATION": 98.1523, "RA_OF_ASC_NODE": 204.8159, "ARG_OF_PERICENTER": 294.3668, "MEAN_ANOMALY": 63.5177, "EPHEMERIS_TYPE": 0, "CLASSIFICATION_TYPE": "U", "NORAD_CAT_ID": 31658, "ELEMENT_SET_NO": 999, "REV_AT_EPOCH": 69957, "BSTAR": 0.0026851926, "MEAN_MOTION_DOT": 4.685e-05, "MEAN_MOTION_DDOT": 0}, "tle": {"line1": "1 31658U 99025CBQ 25356.81180191  .00004685  00000+0  26852-2 0  9995", "line2": "2 31658  98.1523 204.8159 0215133 294.3668  63.5177 13.98886705699575"}}, "geometry": {"type": "Point", "coordinates": [48.69583682157307, 68.69632141621987]}}, {"type": "Feature", "properties": {"norad_id": 31660, "name": "FENGYUN 1C DEB", "group": "fengyun-1c-debris", "lat": -13.420302228026209, "lon": 178.36759348978194, "alt_km": 758.2666052637596, "timestamp": "2025-12-25T09:48:52.573542+00:00", "meta": {"OBJECT_NAME": "FENGYUN 1C DEB", "OBJECT_ID": "1999-025CBS", "EPOCH": "2025-12-16T17:57:05.517792", "MEAN_MOTION": 14.27134643, "ECCENTRICITY": 0.01019278, "INCLINATION": 98.5088, "RA_OF_ASC_NODE": 351.9874, "ARG_OF_PERICENTER": 168.851, "MEAN_ANOMALY": 191.4963, "EPHEMERIS_TYPE": 0, "CLASSIFICATION_TYPE": "U", "NORAD_CAT_ID": 31660, "ELEMENT_SET_NO": 999, "REV_AT_EPOCH": 7973, "BSTAR": 0.0004636242, "MEAN_MOTION_DOT": 1.153e-05, "MEAN_MOTION_DDOT": 0}, "tle": {"line1": "1 31660U 99025CBS 25350.74798053  .00001153  00000+0  46362-3 0  9992", "line2": "2 31660  98.5088 351.9874 0101927 168.8510 191.4963 14.27134643 79736"}}, "geometry": {"type": "Point", "coordinates": [178.36759348978194, -13.420302228026209]}}, {"type": "Feature", "properties": {"norad_id": 31661, "name": "FENGYUN 1C DEB", "group": "fengyun-1c-debris", "lat": 0.09055485938778456, "lon": -101.36543650001478, "alt_km": 767.6134415102688, "timestamp": "2025-12-25T09:48:52.573563+00:00", "meta": {"OBJECT_NAME": "FENGYUN 1C DEB", "OBJECT_ID": "1999-025CBT", "EPOCH": "2025-12-24T16:50:35.606400", "MEAN_MOTION": 14.25524803, "ECCENTRICITY": 0.00590656, "INCLINATION": 98.8598, "RA_OF_ASC_NODE": 77.9062, "ARG_OF_PERICENTER": 190.1629, "MEAN_ANOMALY": 322.7954, "EPHEMERIS_TYPE": 0, "CLASSIFICATION_TYPE": "U", "NORAD_CAT_ID": 31661, "ELEMENT_SET_NO": 999, "REV_AT_EPOCH": 95883, "BSTAR": 0.0016959684, "MEAN_MOTION_DOT": 4.04e-05, "MEAN_MOTION_DDOT": 0}, "tle": {"line1": "1 31661U 99025CBT 25358.70180100  .00004040  00000+0  16960-2 0  9993", "line2": "2 31661  98.8598  77.9062 0059065 190.1629 322.7954 14.25524803958839"}}, "geometry": {"type": "Point", "coordinates": [-101.36543650001478, 0.09055485938778456]}}, {"type": "Feature", "properties": {"norad_id": 31663, "name": "FENGYUN 1C DEB", "group": "fengyun-1c-debris", "lat": 5.084623551193597, "lon": 89.27095983646505, "alt_km": 519.4039502814512, "timestamp": "2025-12-25T09:48:52.573574+00:00", "meta": {"OBJECT_NAME": "FENGYUN 1C DEB", "OBJECT_ID": "1999-025CBV", "EPOCH": "2025-12-24T00:29:19.607712", "MEAN_MOTION": 14.76454332, "ECCENTRICITY": 0.01900004, "INCLINATION": 98.8389, "RA_OF_ASC_NODE": 266.9581, "ARG_OF_PERICENTER": 201.7959, "MEAN_ANOMALY": 157.5086, "EPHEMERIS_TYPE": 0, "CLASSIFICATION_TYPE": "U", "NORAD_CAT_ID": 31663, "ELEMENT_SET_NO": 999, "REV_AT_EPOCH": 99446, "BSTAR": 0.00025673449, "MEAN_MOTION_DOT": 2.328e-05, "MEAN_MOTION_DDOT": 0}, "tle": {"line1": "1 31663U 99025CBV 25358.02036583  .00002328  00000+0  25673-3 0  9994", "line2": "2 31663  98.8389 266.9581 0190000 201.7959 157.5086 14.76454332994469"}}, "geometry": {"type": "Point", "coordinates": [89.27095983646505, 5.084623551193597]}}, {"type": "Feature", "properties": {"norad_id": 31664, "name": "FENGYUN 1C DEB", "group": "fengyun-1c-debris", "lat": -47.28956401728339, "lon": 160.97874721303745, "alt_km": 888.3758076255972, "timestamp": "2025-12-25T09:48:52.573584+00:00", "meta": {"OBJECT_NAME": "FENGYUN 1C DEB", "OBJECT_ID": "1999-025CBW", "EPOCH": "2025-12-23T22:41:42.144288", "MEAN_MOTION": 14.10309456, "ECCENTRICITY": 0.0125293, "INCLINATION": 98.7526, "RA_OF_ASC_NODE": 349.1613, "ARG_OF_PERICENTER": 126.4983, "MEAN_ANOMALY": 234.7807, "EPHEMERIS_TYPE": 0, "CLASSIFICATION_TYPE": "U", "NORAD_CAT_ID": 31664, "ELEMENT_SET_NO": 999, "REV_AT_EPOCH": 96159, "BSTAR": 0.00025215, "MEAN_MOTION_DOT": 4.39e-06, "MEAN_MOTION_DDOT": 0}, "tle": {"line1": "1 31664U 99025CBW 25357.94562667  .00000439  00000+0  25215-3 0  9995", "line2": "2 31664  98.7526 349.1613 0125293 126.4983 234.7807 14.10309456961595"}}, "geometry": {"type": "Point", "coordinates": [160.97874721303745, -47.28956401728339]}}, {"type": "Feature", "properties": {"norad_id": 31665, "name": "FENGYUN 1C DEB", "group": "fengyun-1c-debris", "lat": 7.468741623570729, "lon": -137.7661826385969, "alt_km": 817.5991702352048, "timestamp": "2025-12-25T09:48:52.573597+00:00", "meta": {"OBJECT_NAME": "FENGYUN 1C DEB", "OBJECT_ID": "1999-025CBX", "EPOCH": "2025-12-16T08:14:19.517280", "MEAN_MOTION": 13.84829693, "ECCENTRICITY": 0.01897318, "INCLINATION": 98.4487, "RA_OF_ASC_NODE": 32.9474, "ARG_OF_PERICENTER": 177.2489, "MEAN_ANOMALY": 182.9759, "EPHEMERIS_TYPE": 0, "CLASSIFICATION_TYPE": "U", "NORAD_CAT_ID": 31665, "ELEMENT_SET_NO": 999, "REV_AT_EPOCH": 93241, "BSTAR": 0.0010116548, "MEAN_MOTION_DOT": 1.275e-05, "MEAN_MOTION_DDOT": 0}, "tle": {"line1": "1 31665U 99025CBX 25350.34328145  .00001275  00000+0  10117-2 0  9997", "line2": "2 31665  98.4487  32.9474 0189731 177.2489 182.9759 13.84829693932412"}}, "geometry": {"type": "Point", "coordinates": [-137.7661826385969, 7.468741623570729]}}, {"type": "Feature", "properties": {"norad_id": 31666, "name": "FENGYUN 1C DEB", "group": "fengyun-1c-debris", "lat": 81.16688655166617, "lon": 70.52612787043016, "alt_km": 592.5195556809995, "timestamp": "2025-12-25T09:48:52.573608+00:00", "meta": {"OBJECT_NAME": "FENGYUN 1C DEB", "OBJECT_ID": "1999-025CBY", "EPOCH": "2025-12-24T09:09:21.981024", "MEAN_MOTION": 14.84587842, "ECCENTRICITY": 0.00224944, "INCLINATION": 98.6568, "RA_OF_ASC_NODE": 148.0463, "ARG_OF_PERICENTER": 112.6663, "MEAN_ANOMALY": 247.693, "EPHEMERIS_TYPE": 0, "CLASSIFICATION_TYPE": "U", "NORAD_CAT_ID": 31666, "ELEMENT_SET_NO": 999, "REV_AT_EPOCH": 97444, "BSTAR": 0.0041877062, "MEAN_MOTION_DOT": 0.0003563, "MEAN_MOTION_DDOT": 0}, "tle": {"line1": "1 31666U 99025CBY 25358.38150441  .00035630  00000+0  41877-2 0  9991", "line2": "2 31666  98.6568 148.0463 0022494 112.6663 247.6930 14.84587842974448"}}, "geometry": {"type": "Point", "coordinates": [70.52612787043016, 81.16688655166617]}}, {"type": "Feature", "properties": {"norad_id": 31667, "name": "FENGYUN 1C DEB", "group": "fengyun-1c-debris", "lat": -48.850128600938945, "lon": -137.6343697370549, "alt_km": 827.2487780582778, "timestamp": "2025-12-25T09:48:52.573618+00:00", "meta": {"OBJECT_NAME": "FENGYUN 1C DEB", "OBJECT_ID": "1999-025CBZ", "EPOCH": "2025-12-19T08:58:22.158048", "MEAN_MOTION": 14.23508815, "ECCENTRICITY": 0.0051766, "INCLINATION": 99.0843, "RA_OF_ASC_NODE": 205.588, "ARG_OF_PERICENTER": 68.7145, "MEAN_ANOMALY": 291.9549, "EPHEMERIS_TYPE": 0, "CLASSIFICATION_TYPE": "U", "NORAD_CAT_ID": 31667, "ELEMENT_SET_NO": 999, "REV_AT_EPOCH": 56087, "BSTAR": 0.00019687, "MEAN_MOTION_DOT": 4.07e-06, "MEAN_MOTION_DDOT": 0}, "tle": {"line1": "1 31667U 99025CBZ 25353.37386757  .00000407  00000+0  19687-3 0  9996", "line2": "2 31667  99.0843 205.5880 0051766  68.7145 291.9549 14.23508815560874"}}, "geometry": {"type": "Point", "coordinates": [-137.6343697370549, -48.850128600938945]}}, {"type": "Feature", "properties": {"norad_id": 31672, "name": "FENGYUN 1C DEB", "group": "fengyun-1c-debris", "lat": -17.542241904820468, "lon": 4.9713432879613375, "alt_km": 747.3983096617449, "timestamp": "2025-12-25T09:48:52.573628+00:00", "meta": {"OBJECT_NAME": "FENGYUN 1C DEB", "OBJECT_ID": "1999-025CCE", "EPOCH": "2025-12-23T18:50:02.785344", "MEAN_MOTION": 14.51067194, "ECCENTRICITY": 0.01078417, "INCLINATION": 98.956, "RA_OF_ASC_NODE": 186.1002, "ARG_OF_PERICENTER": 308.5705, "MEAN_ANOMALY": 50.5863, "EPHEMERIS_TYPE": 0, "CLASSIFICATION_TYPE": "U", "NORAD_CAT_ID": 31672, "ELEMENT_SET_NO": 999, "REV_AT_EPOCH": 65031, "BSTAR": 0.001730864, "MEAN_MOTION_DOT": 7.342e-05, "MEAN_MOTION_DDOT": 0}, "tle": {"line1": "1 31672U 99025CCE 25357.78475446  .00007342  00000+0  17309-2 0  9998", "line2": "2 31672  98.9560 186.1002 0107841 308.5705  50.5863 14.51067194650315"}}, "geometry": {"type": "Point", "coordinates": [4.9713432879613375, -17.542241904820468]}}, {"type": "Feature", "properties": {"norad_id": 31673, "name": "FENGYUN 1C DEB", "group": "fengyun-1c-debris", "lat": 42.3374470143915, "lon": -173.76012011691654, "alt_km": 704.0073853147769, "timestamp": "2025-12-25T09:48:52.573638+00:00", "meta": {"OBJECT_NAME": "FENGYUN 1C DEB", "OBJECT_ID": "1999-025CCF", "EPOCH": "2025-12-23T19:02:57.786432", "MEAN_MOTION": 14.31955851, "ECCENTRICITY": 0.01253504, "INCLINATION": 99.3732, "RA_OF_ASC_NODE": 193.1517, "ARG_OF_PERICENTER": 17.2728, "MEAN_ANOMALY": 343.266, "EPHEMERIS_TYPE": 0, "CLASSIFICATION_TYPE": "U", "NORAD_CAT_ID": 31673, "ELEMENT_SET_NO": 999, "REV_AT_EPOCH": 65049, "BSTAR": 0.00019410906, "MEAN_MOTION_DOT": 5.14e-06, "MEAN_MOTION_DDOT": 0}, "tle": {"line1": "1 31673U 99025CCF 25357.79372438  .00000514  00000+0  19411-3 0  9998", "line2": "2 31673  99.3732 193.1517 0125350  17.2728 343.2660 14.31955851650495"}}, "geometry": {"type": "Point", "coordinates": [-173.76012011691654, 42.3374470143915]}}]}